[
    {
        "Altitude(m)": 566947.9439277151,
        "Argument of Periapsis(deg)": 0.033114955553567506,
        "Eccentricity": 0.0,
        "Inclination(deg)": 53.0,
        "Latitude(deg)": -41.036413410675586,
        "Longitude(deg)": 150.29600177247016,
        "Mean Anomaly(deg)": -54.99653566211215,
        "RAAN(deg)": 294.9507168426401,
        "Satellite Name": "Starlink Shell 1 1313",
        "Satellite Number": 1313,
        "Semi-Major Axis(m)": 6931778.249405717,
        "Time(s)": 950
    },
    {
        "Altitude(m)": 566790.3781973664,
        "Argument of Periapsis(deg)": 0.03346353403307874,
        "Eccentricity": 0.0,
        "Inclination(deg)": 53.0,
        "Latitude(deg)": -40.65520792843331,
        "Longitude(deg)": 150.90917559662893,
        "Mean Anomaly(deg)": -54.369704458555304,
        "RAAN(deg)": 294.95019807256267,
        "Satellite Name": "Starlink Shell 1 1313",
        "Satellite Number": 1313,
        "Semi-Major Axis(m)": 6931778.249405717,
        "Time(s)": 960
    },
    {
        "Altitude(m)": 566631.3275187748,
        "Argument of Periapsis(deg)": 0.03381211251258998,
        "Eccentricity": 0.0,
        "Inclination(deg)": 53.0,
        "Latitude(deg)": -40.2703014763392,
        "Longitude(deg)": 151.514927533428,
        "Mean Anomaly(deg)": -53.742873254998656,
        "RAAN(deg)": 294.94967930248515,
        "Satellite Name": "Starlink Shell 1 1313",
        "Satellite Number": 1313,
        "Semi-Major Axis(m)": 6931778.249405717,
        "Time(s)": 970
    },
    {
        "Altitude(m)": 566470.8538819083,
        "Argument of Periapsis(deg)": 0.034160690992101214,
        "Eccentricity": 0.0,
        "Inclination(deg)": 53.0,
        "Latitude(deg)": -39.881783423329054,
        "Longitude(deg)": 152.11337210104506,
        "Mean Anomaly(deg)": -53.11604205144196,
        "RAAN(deg)": 294.9491605324077,
        "Satellite Name": "Starlink Shell 1 1313",
        "Satellite Number": 1313,
        "Semi-Major Axis(m)": 6931778.249405717,
        "Time(s)": 980
    },
    {
        "Altitude(m)": 566309.0197652475,
        "Argument of Periapsis(deg)": 0.034509269471612446,
        "Eccentricity": 0.0,
        "Inclination(deg)": 53.0,
        "Latitude(deg)": -39.489741320330026,
        "Longitude(deg)": 152.70462560917682,
        "Mean Anomaly(deg)": -52.48921084788521,
        "RAAN(deg)": 294.9486417623302,
        "Satellite Name": "Starlink Shell 1 1313",
        "Satellite Number": 1313,
        "Semi-Major Axis(m)": 6931778.249405717,
        "Time(s)": 990
    }
]